NORAD_CAT_ID,OBJECT_NAME,OBJECT_TYPE,EPOCH,MEAN_MOTION,ECCENTRICITY,INCLINATION,RA_OF_ASC_NODE,ARG_OF_PERICENTER,MEAN_ANOMALY,BSTAR,MEAN_MOTION_DOT,MEAN_MOTION_DDOT,TLE_LINE0,TLE_LINE1,TLE_LINE2,SEMIMAJOR_AXIS,PERIOD,APOGEE,PERIGEE,DECAYED
51988.0,STARLINK-3640,PAYLOAD,2022-07-18 22:00:00,15.08814573,0.0001529,53.2162,248.6967,57.6028,247.3276,0.00079413,0.00012364,0.0,0 STARLINK-3640,1 51988U 22025AJ  22199.91667824  .00012364  00000-0  79413-3 0  9991,2 51988  53.2162 248.6967 0001529  57.6028 247.3276 15.08814573  1306,6917.958000000001,95.439,540.881,538.765,0.0
51988.0,STARLINK-3640,PAYLOAD,2022-07-19 14:00:01,15.08811919,0.0001732,53.2162,245.7057,52.0398,276.0499,0.0029949,0.00047662,0.0,0 STARLINK-3640,1 51988U 22025AJ  22200.58334491  .00047662  00000-0  29949-2 0  9995,2 51988  53.2162 245.7057 0001732  52.0398 276.0499 15.08811919 21522,6917.965999999999,95.439,541.029,538.633,0.0
51988.0,STARLINK-3640,PAYLOAD,2022-07-19 22:00:00,15.08864571,0.0001561,53.2169,244.2072,54.6275,285.0495,-0.0055514,-0.00087624,0.0,0 STARLINK-3640,1 51988U 22025AJ  22200.91667824 -.00087624  00000-0 -55514-2 0  9992,2 51988  53.2169 244.2072 0001561  54.6275 285.0495 15.08864571  1304,6917.805,95.436,540.75,538.59,0.0
51988.0,STARLINK-3640,PAYLOAD,2022-07-20 04:00:00,15.08856991,0.0001653,53.2166,243.0851,60.1963,198.1787,0.00036975,5.604e-05,0.0,0 STARLINK-3640,1 51988U 22025AJ  22201.16667824  .00005604  00000-0  36975-3 0  9997,2 51988  53.2166 243.0851 0001653  60.1963 198.1787 15.08856991 21612,6917.828,95.436,540.837,538.55,0.0
51988.0,STARLINK-3640,PAYLOAD,2022-07-20 14:00:01,15.088514300000002,0.000173,53.2167,241.2163,49.4679,313.428,-0.00055565,-9.123e-05,0.0,0 STARLINK-3640,1 51988U 22025AJ  22201.58334491 -.00009123  00000-0 -55565-3 0  9992,2 51988  53.2167 241.2163 0001730  49.4679 313.4280 15.08851430  1306,6917.845,95.437,540.9069999999998,538.514,0.0
51988.0,STARLINK-3640,PAYLOAD,2022-07-20 22:00:01,15.08815763,0.0001491,53.217,239.7181,52.9678,321.6029,-0.00038604,-6.422e-05,0.0,0 STARLINK-3640,1 51988U 22025AJ  22201.91668981 -.00006422  00000-0 -38604-3 0  9997,2 51988  53.2170 239.7181 0001491  52.9678 321.6029 15.08815763 21723,6917.954000000002,95.439,540.851,538.788,0.0
51988.0,STARLINK-3640,PAYLOAD,2022-07-21 14:00:01,15.08797086,0.0001671,53.2171,236.7272,45.4133,352.2825,0.002297,0.00036415,0.0,0 STARLINK-3640,1 51988U 22025AJ  22202.58335648  .00036415  00000-0  22970-2 0  9993,2 51988  53.2171 236.7272 0001671  45.4133 352.2825 15.08797086  1308,6918.012,95.44,541.033,538.721,0.0
51988.0,STARLINK-3640,PAYLOAD,2022-07-21 22:00:00,15.08796326,0.0001494,53.2173,235.2292,52.1251,357.0759,0.0023509,0.0003728,0.0,0 STARLINK-3640,1 51988U 22025AJ  22202.91667824  .00037280  00000-0  23509-2 0  9994,2 51988  53.2173 235.2292 0001494  52.1251 357.0759 15.08796326  1300,6918.014,95.44,540.9119999999998,538.845,0.0
51988.0,STARLINK-3640,PAYLOAD,2022-07-22 06:00:00,15.08838422,0.0001603,53.2174,233.7338,51.3282,9.4281,-0.0018192999999999,-0.00029124,0.0,0 STARLINK-3640,1 51988U 22025AJ  22203.25001157 -.00029124  00000-0 -18193-2 0  9996,2 51988  53.2174 233.7338 0001603  51.3282   9.4281 15.08838422 21924,6917.885,95.438,540.859,538.641,0.0
51988.0,STARLINK-3640,PAYLOAD,2022-07-22 20:00:01,15.08825419,0.0001557,53.2173,231.1147,51.3258,299.6946,-6.7348e-05,-1.359e-05,0.0,0 STARLINK-3640,1 51988U 22025AJ  22203.83334491 -.00001359  00000-0 -67348-4 0  9998,2 51988  53.2173 231.1147 0001557  51.3258 299.6946 15.08825419 22018,6917.925,95.438,540.867,538.7130000000002,0.0
51988.0,STARLINK-3640,PAYLOAD,2022-07-22 22:00:00,15.08806437,0.0001499,53.2172,230.7404,52.5548,31.3663,0.002561,0.00040668,0.0,0 STARLINK-3640,1 51988U 22025AJ  22203.91667824  .00040668  00000-0  25610-2 0  9994,2 51988  53.2172 230.7404 0001499  52.5548  31.3663 15.08806437  1303,6917.983,95.44,540.885,538.811,0.0
51988.0,STARLINK-3640,PAYLOAD,2022-07-23 14:00:01,15.08823786,0.0001701,53.2167,227.7494,45.8665,61.2748,0.0012144,0.00019083,0.0,0 STARLINK-3640,1 51988U 22025AJ  22204.58335648  .00019083  00000-0  12144-2 0  9999,2 51988  53.2167 227.7494 0001701  45.8665  61.2748 15.08823786  1305,6917.93,95.439,540.972,538.618,0.0
51988.0,STARLINK-3640,PAYLOAD,2022-07-23 22:00:00,15.08813691,0.0001505,53.2167,226.2515,53.3527,65.3205,0.0025484,0.00040474,0.0,0 STARLINK-3640,1 51988U 22025AJ  22204.91667824  .00040474  00000-0  25484-2 0  9999,2 51988  53.2167 226.2515 0001505  53.3527  65.3205 15.08813691 22182,6917.9609999999975,95.439,540.867,538.785,0.0
51988.0,STARLINK-3640,PAYLOAD,2022-07-24 14:00:01,15.08833917,0.0001714,53.216,223.2605,47.2407,94.6036,0.00062099,9.607e-05,0.0,0 STARLINK-3640,1 51988U 22025AJ  22205.58334491  .00009607  00000-0  62099-3 0  9991,2 51988  53.2160 223.2605 0001714  47.2407  94.6036 15.08833917 22284,6917.899,95.438,540.95,538.578,0.0
51988.0,STARLINK-3640,PAYLOAD,2022-07-24 22:00:00,15.08817987,0.0001544,53.2159,221.7626,54.5664,98.877,0.0023750999999999,0.00037691,0.0,0 STARLINK-3640,1 51988U 22025AJ  22205.91667824  .00037691  00000-0  23751-2 0  9992,2 51988  53.2159 221.7626 0001544  54.5664  98.8770 15.08817987  1305,6917.948,95.439,540.881,538.745,0.0
51988.0,STARLINK-3640,PAYLOAD,2022-07-25 14:00:01,15.0884114,0.0001751999999999,53.2154,218.7715,48.3503,128.2705,-2.8308e-05,-7.39e-06,0.0,0 STARLINK-3640,1 51988U 22025AJ  22206.58334491 -.00000739  00000-0 -28308-4 0  9997,2 51988  53.2154 218.7715 0001752  48.3503 128.2705 15.08841140 22430,6917.877,95.437,540.9540000000002,538.53,0.0
51988.0,STARLINK-3640,PAYLOAD,2022-07-25 22:00:00,15.08820923,0.0001612,53.2152,217.2735,55.089,133.1347,0.0022517,0.00035711,0.0,0 STARLINK-3640,1 51988U 22025AJ  22206.91667824  .00035711  00000-0  22517-2 0  9993,2 51988  53.2152 217.2735 0001612  55.0890 133.1347 15.08820923  1309,6917.939,95.439,540.919,538.689,0.0
51988.0,STARLINK-3640,PAYLOAD,2022-07-26 14:00:01,15.08848811,0.0001817,53.2151,214.2822,48.8054,162.6014,-0.00064664,-0.00010567,0.0,0 STARLINK-3640,1 51988U 22025AJ  22207.58334491 -.00010567  00000-0 -64664-3 0  9992,2 51988  53.2151 214.2822 0001817  48.8054 162.6014 15.08848811  1305,6917.853,95.437,540.975,538.461,0.0
51988.0,STARLINK-3640,PAYLOAD,2022-07-26 20:00:01,15.08826438,0.0001686,53.2153,213.1586,53.533,76.5826,0.0017042,0.00026928,0.0,0 STARLINK-3640,1 51988U 22025AJ  22207.83334491  .00026928  00000-0  17042-2 0  9993,2 51988  53.2153 213.1586 0001686  53.5330  76.5826 15.08826438 22629,6917.922,95.438,540.953,538.62,0.0
51988.0,STARLINK-3640,PAYLOAD,2022-07-26 22:00:00,15.08824728,0.0001709,53.2151,212.7842,55.0711,167.9431,0.0022829,0.00036216,0.0,0 STARLINK-3640,1 51988U 22025AJ  22207.91667824  .00036216  00000-0  22829-2 0  9991,2 51988  53.2151 212.7842 0001709  55.0711 167.9431 15.08824728  1302,6917.927,95.439,540.974,538.61,0.0
51988.0,STARLINK-3640,PAYLOAD,2022-07-27 14:00:01,15.08858896,0.0001905,53.2152,209.7928,49.2791,196.9304,-0.0011825,-0.00019068,0.0,0 STARLINK-3640,1 51988U 22025AJ  22208.58334491 -.00019068  00000-0 -11825-2 0  9998,2 51988  53.2152 209.7928 0001905  49.2791 196.9304 15.08858896 22739,6917.823,95.436,541.005,538.37,0.0
51988.0,STARLINK-3640,PAYLOAD,2022-07-27 22:00:00,15.08832296,0.0001816,53.2155,208.2948,55.4641,202.3617,0.0023982,0.00038078,0.0,0 STARLINK-3640,1 51988U 22025AJ  22208.91667824  .00038078  00000-0  23982-2 0  9991,2 51988  53.2155 208.2948 0001816  55.4641 202.3617 15.08832296  1307,6917.904,95.438,541.025,538.513,0.0
51988.0,STARLINK-3640,PAYLOAD,2022-07-28 04:00:00,15.0886745,0.000193,53.2158,207.1736,53.7758,122.7471,-0.0018122,-0.00029036,0.0,0 STARLINK-3640,1 51988U 22025AJ  22209.16667824 -.00029036  00000-0 -18122-2 0  9995,2 51988  53.2158 207.1736 0001930  53.7758 122.7471 15.08867450 22823,6917.795999999999,95.436,540.997,538.326,0.0
51988.0,STARLINK-3640,PAYLOAD,2022-07-28 14:00:01,15.08869255,0.0001985,53.2158,205.3033,49.8639,231.1708,-0.0016415,-0.00026339,0.0,0 STARLINK-3640,1 51988U 22025AJ  22209.58334491 -.00026339  00000-0 -16415-2 0  9998,2 51988  53.2158 205.3033 0001985  49.8639 231.1708 15.08869255  1300,6917.791,95.436,541.029,538.283,0.0
51988.0,STARLINK-3640,PAYLOAD,2022-07-28 22:00:00,15.08850252,0.0001853,53.2161,203.8054,55.3783,237.279,-0.0005679999999999,-9.319e-05,0.0,0 STARLINK-3640,1 51988U 22025AJ  22209.91667824 -.00009319  00000-0 -56800-3 0  9996,2 51988  53.2161 203.8054 0001853  55.3783 237.2790 15.08850252 22933,6917.849,95.437,540.996,538.432,0.0
51988.0,STARLINK-3640,PAYLOAD,2022-07-29 14:00:01,15.08850423,0.0001962,53.2163,200.814,49.07100000000001,266.7743,-0.0020614,-0.00032956,0.0,0 STARLINK-3640,1 51988U 22025AJ  22210.58334491 -.00032956  00000-0 -20614-2 0  9998,2 51988  53.2163 200.8140 0001962  49.0710 266.7743 15.08850423  1302,6917.849,95.437,541.071,538.356,0.0
51988.0,STARLINK-3640,PAYLOAD,2022-07-29 22:00:00,15.0882013,0.0001863,53.2168,199.3163,55.7845,271.6589,0.0022893,0.00036315,0.0,0 STARLINK-3640,1 51988U 22025AJ  22210.91667824  .00036315  00000-0  22893-2 0  9996,2 51988  53.2168 199.3163 0001863  55.7845 271.6589 15.08820130  1302,6917.941,95.439,541.095,538.5169999999998,0.0
51988.0,STARLINK-3640,PAYLOAD,2022-07-30 06:00:00,15.08841986,0.0002032999999999,53.2168,197.8217,51.4031,287.6294,-0.0008074,-0.00013116,0.0,0 STARLINK-3640,1 51988U 22025AJ  22211.25001157 -.00013116  00000-0 -80740-3 0  9997,2 51988  53.2168 197.8217 0002033  51.4031 287.6294 15.08841986 23132,6917.874,95.437,541.146,538.3330000000002,0.0
51988.0,STARLINK-3640,PAYLOAD,2022-07-30 14:00:01,15.08856271,0.0001993,53.2167,196.3248,50.7555,299.8621,-0.002299,-0.00036708,0.0,0 STARLINK-3640,1 51988U 22025AJ  22211.58334491 -.00036708  00000-0 -22990-2 0  9997,2 51988  53.2167 196.3248 0001993  50.7555 299.8621 15.08856271  1303,6917.831,95.437,541.0740000000002,538.317,0.0
